EUTELSAT HOTBIRD 13F    
1 54048U 22134A   26192.36183559  .00000093  00000+0  00000+0 0  9993
2 54048   0.0527 288.2883 0001894  64.0246  80.2271  1.00270860 13615
LDPE-2                  
1 54219U 22144A   26192.68097331  .00000047  00000+0  00000+0 0  9990
2 54219   5.6696  63.4450 0002399 110.9246 226.3752  1.00542582 12088
EUTELSAT HOTBIRD 13G    
1 54225U 22146A   26192.85263053  .00000091  00000+0  00000+0 0  9993
2 54225   0.0446 222.9067 0002249 322.6434  64.1524  1.00272538  7718
ZHONGXING-19            
1 54230U 22148A   26192.73984936 -.00000077  00000+0  00000+0 0  9993
2 54230   0.0169 301.5336 0002931 197.1569 220.4846  1.00270480 13626
GALAXY 31 (G-31)        
1 54243U 22153A   26192.68357332  .00000000  00000+0  00000+0 0  9996
2 54243   0.0240  56.8389 0000918  61.9689 295.8604  1.00270051  7379
GALAXY 32 (G-32)        
1 54244U 22153B   26192.26174809 -.00000167  00000+0  00000+0 0  9992
2 54244   0.0115  41.9388 0001456   4.2849 246.1793  1.00271069 13387
EUTELSAT 10B            
1 54259U 22157A   26192.36225226  .00000074  00000+0  00000+0 0  9999
2 54259   0.0608  95.6005 0001665  17.8010 316.2721  1.00270308 13266
GALAXY 35 (G-35)        
1 54741U 22170A   26192.83154931  .00000000  00000+0  00000+0 0  9995
2 54741   0.0204  48.3005 0001863  68.9556  18.7328  1.00269280 13142
GALAXY 36 (G-36)        
1 54742U 22170B   26192.83250264 -.00000181  00000+0  00000+0 0  9993
2 54742   0.0281 111.5754 0002360 348.2212  40.6410  1.00271128 13025
METEOSAT-12 (MTG-I1)    
1 54743U 22170C   26192.85003052 -.00000004  00000+0  00000+0 0  9991
2 54743   0.7214  19.1046 0003787  82.8397 133.5456  1.00267004 13227
SHIJIAN-23 (SJ-23)      
1 55131U 23002A   26192.71564480 -.00000344  00000+0  00000+0 0  9997
2 55131   3.7776  78.0038 0003417 270.2862 330.4998  1.00078207 12751
USA 342                 
1 55263U 23008A   26190.28864118  .00000000  00000+0  00000+0 0  9998
2 55263   0.0052 352.2306 0000262   7.3445  55.4773  1.00269378 12734
LDPE-3A                 
1 55264U 23008B   26192.80875587 -.00000285  00000+0  00000+0 0  9997
2 55264   2.4093  81.3596 0001512  79.5702 211.3855  0.99151021 12054
ELEKTRO-L 4             
1 55506U 23016A   26192.73490914 -.00000053  00000+0  00000+0 0  9997
2 55506   0.1079 129.0752 0001254  47.7958 183.1237  1.00272373 12573
AMAZONAS NEXUS          
1 55508U 23017A   26192.55283288 -.00000277  00000+0  00000+0 0  9992
2 55508   0.0349  41.3147 0004412  43.3627 342.7993  1.00269216  7288
ZHONGXING-26            
1 55686U 23023A   26192.66095321 -.00000349  00000+0  00000+0 0  9997
2 55686   0.0660  71.3982 0003364  31.9982 189.2021  1.00274397 12472
LUCH-5X (OLYMP-K 2)     
1 55841U 23031A   26192.68287691  .00000038  00000+0  00000+0 0  9998
2 55841   0.0297  92.0561 0000943 160.2588 345.0840  1.00270002 12180
GAOFEN-13 02            
1 55912U 23036A   26192.73681602 -.00000214  00000+0  00000+0 0  9995
2 55912   1.0265   4.1097 0003717 336.6142   2.3618  1.00275004 12330
SES-18                  
1 55970U 23038A   26192.61579741 -.00000096  00000+0  00000+0 0  9996
2 55970   0.0489 264.9854 0000713 308.1870 194.9434  1.00271302 12345
INTELSAT 40E (IS-40E)   
1 56174U 23052A   26192.83206931 -.00000170  00000+0  00000+0 0  9994
2 56174   0.0146  86.9489 0002204  58.2894 353.0423  1.00271359 12072
VIASAT-3 F1             
1 56370U 23060A   26192.83250264  .00000000  00000+0  00000+0 0  9990
2 56370   0.0165  23.0322 0000934  86.6489  30.7788  1.00268906 11685
ARCTURUS                
1 56371U 23060B   26192.86897814 -.00000316  00000+0  00000+0 0  9993
2 56371   2.8362  79.6351 0000801 133.0710 125.0367  1.00596039 11706
BEIDOU-3 G4             
1 56564U 23066A   26192.87781818 -.00000276  00000+0  00000+0 0  9995
2 56564   0.4632 337.9255 0004866 188.1650 219.7465  1.00273609 11644
NVS-01 (IRNSS-1J)       
1 56759U 23076A   26192.80442251 -.00000330  00000+0  00000+0 0  9991
2 56759   2.1103 243.2475 0003529   7.3711  98.1724  1.00266230 11368
NUSANTARA TIGA (SATRIA) 
1 57045U 23086A   26192.58933976 -.00000230  00000+0  00000+0 0  9994
2 57045   0.0344  10.1723 0002240 330.6150 306.8651  1.00267940 10003
H2SAT (HEINRICH HERTZ)  
1 57213U 23093A   26192.85020385  .00000006  00000+0  00000+0 0  9990
2 57213   0.0152  97.7205 0000346  42.1046  96.7013  1.00269676 11160
SYRACUSE 4B             
1 57214U 23093B   26192.84881719  .00000000  00000+0  00000+0 0  9990
2 57214   0.0302  51.8268 0000513 192.6516 344.3919  1.00270865  7217
JUPITER 3 (ECHOSTAR 24) 
1 57479U 23108A   26191.46347704  .00000000  00000+0  00000+0 0  9998
2 57479   0.0227  41.8846 0001144  62.5557 255.5724  1.00270144 10882
